start=new Date('2021-08-26T00:00:00.000Z').valueOf();
sats=[{"MEAN_ELEMENT_THEORY":"SGP4","TIME_SYSTEM":"UTC","APOAPSIS":"547.952","MEAN_MOTION":"15.06410865","OBJECT_TYPE":"PAYLOAD","SITE":"AFETR","TLE_LINE2":"2 46382  53.0559 211.7252 0001114  61.9162 298.1940 15.06410865 55148","RCS_SIZE":"LARGE","ARG_OF_PERICENTER":"61.9162","GP_ID":"183419131","ELEMENT_SET_NO":"999","INCLINATION":"53.0559","TLE_LINE1":"1 46382U 20062BK  21237.34768609  .00001102  00000-0  92855-4 0  9998","MEAN_ANOMALY":"298.1940","LAUNCH_DATE":"2020-09-03","EPOCH":"2021-08-25T08:20:40.078176","CLASSIFICATION_TYPE":"U","REV_AT_EPOCH":"5514","REF_FRAME":"TEME","OBJECT_ID":"2020-062BK","RA_OF_ASC_NODE":"211.7252","CENTER_NAME":"EARTH","OBJECT_NAME":"STARLINK-1769","FILE":"3103042","PERIOD":"95.591","NORAD_CAT_ID":"46382","MEAN_MOTION_DOT":"0.00001102","COUNTRY_CODE":"US","PERIAPSIS":"546.409","EPHEMERIS_TYPE":"0","SEMIMAJOR_AXIS":"6925.315","DECAY_DATE":null,"MEAN_MOTION_DDOT":"0.0000000000000","ECCENTRICITY":"0.00011140","BSTAR":"0.00009285500000"},{"MEAN_MOTION_DDOT":"0.0000000000000","ECCENTRICITY":"0.00006970","BSTAR":"0.00003466000000","PERIAPSIS":"546.774","SEMIMAJOR_AXIS":"6925.391","DECAY_DATE":null,"EPHEMERIS_TYPE":"0","CENTER_NAME":"EARTH","OBJECT_NAME":"STARLINK-1770","FILE":"3103208","PERIOD":"95.593","NORAD_CAT_ID":"46383","MEAN_MOTION_DOT":"0.00000235","COUNTRY_CODE":"US","OBJECT_ID":"2020-062BL","REV_AT_EPOCH":"5458","REF_FRAME":"TEME","RA_OF_ASC_NODE":"254.3992","CLASSIFICATION_TYPE":"U","EPOCH":"2021-08-25T20:45:46.196928","TLE_LINE1":"1 46383U 20062BL  21237.86511802  .00000235  00000-0  34660-4 0  9993","LAUNCH_DATE":"2020-09-03","MEAN_ANOMALY":"280.0495","RCS_SIZE":"LARGE","ARG_OF_PERICENTER":"80.0573","GP_ID":"183446834","INCLINATION":"53.0538","ELEMENT_SET_NO":"999","MEAN_MOTION":"15.06386039","APOAPSIS":"547.739","OBJECT_TYPE":"PAYLOAD","MEAN_ELEMENT_THEORY":"SGP4","TIME_SYSTEM":"UTC","TLE_LINE2":"2 46383  53.0538 254.3992 0000697  80.0573 280.0495 15.06386039 54580","SITE":"AFETR"},{"EPOCH":"2021-08-25T12:53:22.175808","CLASSIFICATION_TYPE":"U","TLE_LINE1":"1 46384U 20062BM  21237.53706222  .00000359  00000-0  42967-4 0  9996","MEAN_ANOMALY":"297.4691","LAUNCH_DATE":"2020-09-03","RCS_SIZE":"LARGE","ARG_OF_PERICENTER":"62.6318","GP_ID":"183420133","ELEMENT_SET_NO":"999","INCLINATION":"53.0529","MEAN_ELEMENT_THEORY":"SGP4","TIME_SYSTEM":"UTC","MEAN_MOTION":"15.06387678","APOAPSIS":"547.388","OBJECT_TYPE":"PAYLOAD","TLE_LINE2":"2 46384  53.0529 255.8634 0000197  62.6318 297.4691 15.06387678 54533","SITE":"AFETR","MEAN_MOTION_DDOT":"0.0000000000000","ECCENTRICITY":"0.00001970","BSTAR":"0.00004296700000","PERIAPSIS":"547.115","EPHEMERIS_TYPE":"0","SEMIMAJOR_AXIS":"6925.386","DECAY_DATE":null,"CENTER_NAME":"EARTH","OBJECT_NAME":"STARLINK-1771","PERIOD":"95.593","FILE":"3103042","NORAD_CAT_ID":"46384","COUNTRY_CODE":"US","MEAN_MOTION_DOT":"0.00000359","REF_FRAME":"TEME","REV_AT_EPOCH":"5453","OBJECT_ID":"2020-062BM","RA_OF_ASC_NODE":"255.8634"},{"OBJECT_TYPE":"PAYLOAD","APOAPSIS":"548.555","MEAN_MOTION":"15.06382954","TIME_SYSTEM":"UTC","MEAN_ELEMENT_THEORY":"SGP4","TLE_LINE2":"2 46532  53.0563  54.3862 0001862  92.4546 267.6656 15.06382954 49788","SITE":"AFETR","RCS_SIZE":"LARGE","ARG_OF_PERICENTER":"92.4546","INCLINATION":"53.0563","ELEMENT_SET_NO":"999","GP_ID":"183446607","TLE_LINE1":"1 46532U 20070A   21237.86879752  .00000877  00000-0  77832-4 0  9999","MEAN_ANOMALY":"267.6656","LAUNCH_DATE":"2020-10-06","CLASSIFICATION_TYPE":"U","EPOCH":"2021-08-25T20:51:04.105728","OBJECT_ID":"2020-070A","REV_AT_EPOCH":"4978","REF_FRAME":"TEME","RA_OF_ASC_NODE":"54.3862","FILE":"3103208","PERIOD":"95.593","OBJECT_NAME":"STARLINK-1644","CENTER_NAME":"EARTH","MEAN_MOTION_DOT":"0.00000877","COUNTRY_CODE":"US","NORAD_CAT_ID":"46532","PERIAPSIS":"545.976","DECAY_DATE":null,"SEMIMAJOR_AXIS":"6925.401","EPHEMERIS_TYPE":"0","ECCENTRICITY":"0.00018620","MEAN_MOTION_DDOT":"0.0000000000000","BSTAR":"0.00007783200000"},{"COUNTRY_CODE":"US","MEAN_MOTION_DOT":"-0.00000504","NORAD_CAT_ID":"46533","PERIOD":"95.593","FILE":"3103208","CENTER_NAME":"EARTH","OBJECT_NAME":"STARLINK-1648","RA_OF_ASC_NODE":"54.9373","REV_AT_EPOCH":"4976","REF_FRAME":"TEME","OBJECT_ID":"2020-070B","BSTAR":"-0.00001493200000","ECCENTRICITY":"0.00017540","MEAN_MOTION_DDOT":"0.0000000000000","EPHEMERIS_TYPE":"0","DECAY_DATE":null,"SEMIMAJOR_AXIS":"6925.366","PERIAPSIS":"546.017","ELEMENT_SET_NO":"999","INCLINATION":"53.0562","GP_ID":"183445858","ARG_OF_PERICENTER":"90.3480","RCS_SIZE":"LARGE","TLE_LINE2":"2 46533  53.0562  54.9373 0001754  90.3480 269.7710 15.06394173 49763","SITE":"AFETR","TIME_SYSTEM":"UTC","MEAN_ELEMENT_THEORY":"SGP4","OBJECT_TYPE":"PAYLOAD","MEAN_MOTION":"15.06394173","APOAPSIS":"548.446","EPOCH":"2021-08-25T17:55:54.656832","CLASSIFICATION_TYPE":"U","LAUNCH_DATE":"2020-10-06","MEAN_ANOMALY":"269.7710","TLE_LINE1":"1 46533U 20070B   21237.74716038 -.00000504  00000-0 -14932-4 0  9995"},{"PERIAPSIS":"545.899","EPHEMERIS_TYPE":"0","SEMIMAJOR_AXIS":"6925.370","DECAY_DATE":null,"MEAN_MOTION_DDOT":"0.0000000000000","ECCENTRICITY":"0.00019280","BSTAR":"-0.00005578900000","REV_AT_EPOCH":"4977","REF_FRAME":"TEME","OBJECT_ID":"2020-070C","RA_OF_ASC_NODE":"54.7176","OBJECT_NAME":"STARLINK-1659","CENTER_NAME":"EARTH","FILE":"3103208","PERIOD":"95.593","NORAD_CAT_ID":"46534","COUNTRY_CODE":"US","MEAN_MOTION_DOT":"-0.00001112","TLE_LINE1":"1 46534U 20070C   21237.79507253 -.00001112  00000-0 -55789-4 0  9999","LAUNCH_DATE":"2020-10-06","MEAN_ANOMALY":"258.0257","CLASSIFICATION_TYPE":"U","EPOCH":"2021-08-25T19:04:54.266592","MEAN_ELEMENT_THEORY":"SGP4","TIME_SYSTEM":"UTC","APOAPSIS":"548.570","MEAN_MOTION":"15.06393115","OBJECT_TYPE":"PAYLOAD","TLE_LINE2":"2 46534  53.0561  54.7176 0001928 102.0948 258.0257 15.06393115 49778","SITE":"AFETR","ARG_OF_PERICENTER":"102.0948","RCS_SIZE":"LARGE","GP_ID":"183445602","INCLINATION":"53.0561","ELEMENT_SET_NO":"999"},{"GP_ID":"183446348","INCLINATION":"53.0546","ELEMENT_SET_NO":"999","RCS_SIZE":"LARGE","ARG_OF_PERICENTER":"98.7982","SITE":"AFETR","TLE_LINE2":"2 46535  53.0546  54.1749 0002011  98.7982 261.3234 15.06403749 49783","MEAN_ELEMENT_THEORY":"SGP4","TIME_SYSTEM":"UTC","MEAN_MOTION":"15.06403749","APOAPSIS":"548.595","OBJECT_TYPE":"PAYLOAD","CLASSIFICATION_TYPE":"U","EPOCH":"2021-08-25T22:00:03.141792","MEAN_ANOMALY":"261.3234","LAUNCH_DATE":"2020-10-06","TLE_LINE1":"1 46535U 20070D   21237.91670303  .00000907  00000-0  79796-4 0  9994","NORAD_CAT_ID":"46535","COUNTRY_CODE":"US","MEAN_MOTION_DOT":"0.00000907","OBJECT_NAME":"STARLINK-1663","CENTER_NAME":"EARTH","FILE":"3103208","PERIOD":"95.592","RA_OF_ASC_NODE":"54.1749","REV_AT_EPOCH":"4978","REF_FRAME":"TEME","OBJECT_ID":"2020-070D","BSTAR":"0.00007979600000","MEAN_MOTION_DDOT":"0.0000000000000","ECCENTRICITY":"0.00020110","EPHEMERIS_TYPE":"0","SEMIMAJOR_AXIS":"6925.337","DECAY_DATE":null,"PERIAPSIS":"545.809"},{"MEAN_MOTION_DDOT":"0.0000000000000","ECCENTRICITY":"0.00014190","BSTAR":"0.00014569000000","PERIAPSIS":"438.704","SEMIMAJOR_AXIS":"6817.806","DECAY_DATE":null,"EPHEMERIS_TYPE":"0","CENTER_NAME":"EARTH","OBJECT_NAME":"STARLINK-1668","PERIOD":"93.374","FILE":"3103208","NORAD_CAT_ID":"46536","COUNTRY_CODE":"US","MEAN_MOTION_DOT":"0.00005938","OBJECT_ID":"2020-070E","REV_AT_EPOCH":"4986","REF_FRAME":"TEME","RA_OF_ASC_NODE":"48.7067","EPOCH":"2021-08-25T21:09:12.611808","CLASSIFICATION_TYPE":"U","TLE_LINE1":"1 46536U 20070E   21237.88139597  .00005938  00000-0  14569-3 0  9991","LAUNCH_DATE":"2020-10-06","MEAN_ANOMALY":"299.2384","RCS_SIZE":"LARGE","ARG_OF_PERICENTER":"60.8763","GP_ID":"183447108","ELEMENT_SET_NO":"999","INCLINATION":"53.0559","APOAPSIS":"440.638","MEAN_MOTION":"15.42182604","OBJECT_TYPE":"PAYLOAD","MEAN_ELEMENT_THEORY":"SGP4","TIME_SYSTEM":"UTC","TLE_LINE2":"2 46536  53.0559  48.7067 0001419  60.8763 299.2384 15.42182604 49867","SITE":"AFETR"},{"ARG_OF_PERICENTER":"104.5479","RCS_SIZE":"LARGE","GP_ID":"183445358","ELEMENT_SET_NO":"999","INCLINATION":"53.0556","MEAN_ELEMENT_THEORY":"SGP4","TIME_SYSTEM":"UTC","APOAPSIS":"548.220","MEAN_MOTION":"15.06397974","OBJECT_TYPE":"PAYLOAD","SITE":"AFETR","TLE_LINE2":"2 46537  53.0556  54.6485 0001444 104.5479 255.5670 15.06397974 49774","EPOCH":"2021-08-25T19:26:07.051776","CLASSIFICATION_TYPE":"U","TLE_LINE1":"1 46537U 20070F   21237.80980384 -.00005037  00000-0 -31949-3 0  9995","LAUNCH_DATE":"2020-10-06","MEAN_ANOMALY":"255.5670","OBJECT_NAME":"STARLINK-1672","CENTER_NAME":"EARTH","PERIOD":"95.592","FILE":"3103208","NORAD_CAT_ID":"46537","MEAN_MOTION_DOT":"-0.00005037","COUNTRY_CODE":"US","REF_FRAME":"TEME","REV_AT_EPOCH":"4977","OBJECT_ID":"2020-070F","RA_OF_ASC_NODE":"54.6485","MEAN_MOTION_DDOT":"0.0000000000000","ECCENTRICITY":"0.00014440","BSTAR":"-0.00031949000000","PERIAPSIS":"546.220","EPHEMERIS_TYPE":"0","SEMIMAJOR_AXIS":"6925.355","DECAY_DATE":null},{"EPOCH":"2021-08-25T18:54:19.346688","CLASSIFICATION_TYPE":"U","MEAN_ANOMALY":"258.3484","LAUNCH_DATE":"2020-10-06","TLE_LINE1":"1 46538U 20070G   21237.78772392  .00002682  00000-0  19888-3 0  9990","GP_ID":"183446103","ELEMENT_SET_NO":"999","INCLINATION":"53.0557","RCS_SIZE":"LARGE","ARG_OF_PERICENTER":"101.7689","TLE_LINE2":"2 46538  53.0557  54.7559 0001636 101.7689 258.3484 15.06394405 49763","SITE":"AFETR","MEAN_MOTION":"15.06394405","APOAPSIS":"548.364","OBJECT_TYPE":"PAYLOAD","MEAN_ELEMENT_THEORY":"SGP4","TIME_SYSTEM":"UTC","BSTAR":"0.00019888000000","MEAN_MOTION_DDOT":"0.0000000000000","ECCENTRICITY":"0.00016360","SEMIMAJOR_AXIS":"6925.366","DECAY_DATE":null,"EPHEMERIS_TYPE":"0","PERIAPSIS":"546.098","NORAD_CAT_ID":"46538","MEAN_MOTION_DOT":"0.00002682","COUNTRY_CODE":"US","OBJECT_NAME":"STARLINK-1678","CENTER_NAME":"EARTH","PERIOD":"95.592","FILE":"3103208","RA_OF_ASC_NODE":"54.7559","OBJECT_ID":"2020-070G","REV_AT_EPOCH":"4976","REF_FRAME":"TEME"}];
